<?xml version="1.0" encoding="UTF-8"?>
<ndm xmlns:xsi="http://www.w3.org/2001/XMLSchema-instance" xsi:noNamespaceSchemaLocation="https://sanaregistry.org/r/ndmxml_unqualified/ndmxml-2.0.0-master-2.0.xsd">
<omm id="CCSDS_OMM_VERS" version="2.0">
<header><CREATION_DATE/><ORIGINATOR/></header><body><segment><metadata><OBJECT_NAME>ORBCOMM FM24</OBJECT_NAME><OBJECT_ID>1998-053D</OBJECT_ID><CENTER_NAME>EARTH</CENTER_NAME><REF_FRAME>TEME</REF_FRAME><TIME_SYSTEM>UTC</TIME_SYSTEM><MEAN_ELEMENT_THEORY>SGP4</MEAN_ELEMENT_THEORY></metadata><data><meanElements><EPOCH>2024-09-07T11:54:42.378048</EPOCH><MEAN_MOTION>14.36324361</MEAN_MOTION><ECCENTRICITY>.0001538</ECCENTRICITY><INCLINATION>45.0072</INCLINATION><RA_OF_ASC_NODE>167.8885</RA_OF_ASC_NODE><ARG_OF_PERICENTER>294.8003</ARG_OF_PERICENTER><MEAN_ANOMALY>65.2684</MEAN_ANOMALY></meanElements><tleParameters><EPHEMERIS_TYPE>0</EPHEMERIS_TYPE><CLASSIFICATION_TYPE>U</CLASSIFICATION_TYPE><NORAD_CAT_ID>25478</NORAD_CAT_ID><ELEMENT_SET_NO>999</ELEMENT_SET_NO><REV_AT_EPOCH>35705</REV_AT_EPOCH><BSTAR>.1904E-2</BSTAR><MEAN_MOTION_DOT>.5482E-4</MEAN_MOTION_DOT><MEAN_MOTION_DDOT>0</MEAN_MOTION_DDOT></tleParameters></data></segment></body></omm>
<omm id="CCSDS_OMM_VERS" version="2.0">
<header><CREATION_DATE/><ORIGINATOR/></header><body><segment><metadata><OBJECT_NAME>ORBCOMM FM25</OBJECT_NAME><OBJECT_ID>1998-053E</OBJECT_ID><CENTER_NAME>EARTH</CENTER_NAME><REF_FRAME>TEME</REF_FRAME><TIME_SYSTEM>UTC</TIME_SYSTEM><MEAN_ELEMENT_THEORY>SGP4</MEAN_ELEMENT_THEORY></metadata><data><meanElements><EPOCH>2024-09-06T20:06:48.502368</EPOCH><MEAN_MOTION>14.36299932</MEAN_MOTION><ECCENTRICITY>.0004037</ECCENTRICITY><INCLINATION>45.0063</INCLINATION><RA_OF_ASC_NODE>169.2516</RA_OF_ASC_NODE><ARG_OF_PERICENTER>282.1547</ARG_OF_PERICENTER><MEAN_ANOMALY>77.8848</MEAN_ANOMALY></meanElements><tleParameters><EPHEMERIS_TYPE>0</EPHEMERIS_TYPE><CLASSIFICATION_TYPE>U</CLASSIFICATION_TYPE><NORAD_CAT_ID>25479</NORAD_CAT_ID><ELEMENT_SET_NO>999</ELEMENT_SET_NO><REV_AT_EPOCH>35697</REV_AT_EPOCH><BSTAR>.18874E-2</BSTAR><MEAN_MOTION_DOT>.543E-4</MEAN_MOTION_DOT><MEAN_MOTION_DDOT>0</MEAN_MOTION_DDOT></tleParameters></data></segment></body></omm>
<omm id="CCSDS_OMM_VERS" version="2.0">
<header><CREATION_DATE/><ORIGINATOR/></header><body><segment><metadata><OBJECT_NAME>ORBCOMM FM26</OBJECT_NAME><OBJECT_ID>1998-053F</OBJECT_ID><CENTER_NAME>EARTH</CENTER_NAME><REF_FRAME>TEME</REF_FRAME><TIME_SYSTEM>UTC</TIME_SYSTEM><MEAN_ELEMENT_THEORY>SGP4</MEAN_ELEMENT_THEORY></metadata><data><meanElements><EPOCH>2024-09-06T19:47:40.718112</EPOCH><MEAN_MOTION>14.35638336</MEAN_MOTION><ECCENTRICITY>.000636</ECCENTRICITY><INCLINATION>45.0059</INCLINATION><RA_OF_ASC_NODE>163.9757</RA_OF_ASC_NODE><ARG_OF_PERICENTER>296.1965</ARG_OF_PERICENTER><MEAN_ANOMALY>63.8228</MEAN_ANOMALY></meanElements><tleParameters><EPHEMERIS_TYPE>0</EPHEMERIS_TYPE><CLASSIFICATION_TYPE>U</CLASSIFICATION_TYPE><NORAD_CAT_ID>25480</NORAD_CAT_ID><ELEMENT_SET_NO>999</ELEMENT_SET_NO><REV_AT_EPOCH>35700</REV_AT_EPOCH><BSTAR>.15361E-2</BSTAR><MEAN_MOTION_DOT>.4333E-4</MEAN_MOTION_DOT><MEAN_MOTION_DDOT>0</MEAN_MOTION_DDOT></tleParameters></data></segment></body></omm>
<omm id="CCSDS_OMM_VERS" version="2.0">
<header><CREATION_DATE/><ORIGINATOR/></header><body><segment><metadata><OBJECT_NAME>ORBCOMM FM27</OBJECT_NAME><OBJECT_ID>1998-053G</OBJECT_ID><CENTER_NAME>EARTH</CENTER_NAME><REF_FRAME>TEME</REF_FRAME><TIME_SYSTEM>UTC</TIME_SYSTEM><MEAN_ELEMENT_THEORY>SGP4</MEAN_ELEMENT_THEORY></metadata><data><meanElements><EPOCH>2024-09-07T10:52:40.015488</EPOCH><MEAN_MOTION>14.36298948</MEAN_MOTION><ECCENTRICITY>.0001247</ECCENTRICITY><INCLINATION>45.0044</INCLINATION><RA_OF_ASC_NODE>166.6027</RA_OF_ASC_NODE><ARG_OF_PERICENTER>3.1940</ARG_OF_PERICENTER><MEAN_ANOMALY>356.8915</MEAN_ANOMALY></meanElements><tleParameters><EPHEMERIS_TYPE>0</EPHEMERIS_TYPE><CLASSIFICATION_TYPE>U</CLASSIFICATION_TYPE><NORAD_CAT_ID>25481</NORAD_CAT_ID><ELEMENT_SET_NO>999</ELEMENT_SET_NO><REV_AT_EPOCH>35703</REV_AT_EPOCH><BSTAR>.20914E-2</BSTAR><MEAN_MOTION_DOT>.6032E-4</MEAN_MOTION_DOT><MEAN_MOTION_DDOT>0</MEAN_MOTION_DDOT></tleParameters></data></segment></body></omm>
<omm id="CCSDS_OMM_VERS" version="2.0">
<header><CREATION_DATE/><ORIGINATOR/></header><body><segment><metadata><OBJECT_NAME>ORBCOMM FM28</OBJECT_NAME><OBJECT_ID>1998-053H</OBJECT_ID><CENTER_NAME>EARTH</CENTER_NAME><REF_FRAME>TEME</REF_FRAME><TIME_SYSTEM>UTC</TIME_SYSTEM><MEAN_ELEMENT_THEORY>SGP4</MEAN_ELEMENT_THEORY></metadata><data><meanElements><EPOCH>2024-09-06T18:42:09.208800</EPOCH><MEAN_MOTION>14.36669418</MEAN_MOTION><ECCENTRICITY>.0003605</ECCENTRICITY><INCLINATION>45.0045</INCLINATION><RA_OF_ASC_NODE>107.8762</RA_OF_ASC_NODE><ARG_OF_PERICENTER>322.9562</ARG_OF_PERICENTER><MEAN_ANOMALY>37.1037</MEAN_ANOMALY></meanElements><tleParameters><EPHEMERIS_TYPE>0</EPHEMERIS_TYPE><CLASSIFICATION_TYPE>U</CLASSIFICATION_TYPE><NORAD_CAT_ID>25482</NORAD_CAT_ID><ELEMENT_SET_NO>999</ELEMENT_SET_NO><REV_AT_EPOCH>35774</REV_AT_EPOCH><BSTAR>.1518E-2</BSTAR><MEAN_MOTION_DOT>.4372E-4</MEAN_MOTION_DOT><MEAN_MOTION_DDOT>0</MEAN_MOTION_DDOT></tleParameters></data></segment></body></omm>
<omm id="CCSDS_OMM_VERS" version="2.0">
<header><CREATION_DATE/><ORIGINATOR/></header><body><segment><metadata><OBJECT_NAME>ORBCOMM FM30</OBJECT_NAME><OBJECT_ID>1999-065A</OBJECT_ID><CENTER_NAME>EARTH</CENTER_NAME><REF_FRAME>TEME</REF_FRAME><TIME_SYSTEM>UTC</TIME_SYSTEM><MEAN_ELEMENT_THEORY>SGP4</MEAN_ELEMENT_THEORY></metadata><data><meanElements><EPOCH>2024-09-07T12:58:53.816160</EPOCH><MEAN_MOTION>14.35790463</MEAN_MOTION><ECCENTRICITY>.0004376</ECCENTRICITY><INCLINATION>45.0331</INCLINATION><RA_OF_ASC_NODE>346.2424</RA_OF_ASC_NODE><ARG_OF_PERICENTER>19.4825</ARG_OF_PERICENTER><MEAN_ANOMALY>340.6189</MEAN_ANOMALY></meanElements><tleParameters><EPHEMERIS_TYPE>0</EPHEMERIS_TYPE><CLASSIFICATION_TYPE>U</CLASSIFICATION_TYPE><NORAD_CAT_ID>25980</NORAD_CAT_ID><ELEMENT_SET_NO>999</ELEMENT_SET_NO><REV_AT_EPOCH>29433</REV_AT_EPOCH><BSTAR>.16665E-2</BSTAR><MEAN_MOTION_DOT>.4727E-4</MEAN_MOTION_DOT><MEAN_MOTION_DDOT>0</MEAN_MOTION_DDOT></tleParameters></data></segment></body></omm>
<omm id="CCSDS_OMM_VERS" version="2.0">
<header><CREATION_DATE/><ORIGINATOR/></header><body><segment><metadata><OBJECT_NAME>ORBCOMM FM31</OBJECT_NAME><OBJECT_ID>1999-065B</OBJECT_ID><CENTER_NAME>EARTH</CENTER_NAME><REF_FRAME>TEME</REF_FRAME><TIME_SYSTEM>UTC</TIME_SYSTEM><MEAN_ELEMENT_THEORY>SGP4</MEAN_ELEMENT_THEORY></metadata><data><meanElements><EPOCH>2024-09-07T12:10:13.348416</EPOCH><MEAN_MOTION>14.35772250</MEAN_MOTION><ECCENTRICITY>.0001286</ECCENTRICITY><INCLINATION>45.0240</INCLINATION><RA_OF_ASC_NODE>340.0146</RA_OF_ASC_NODE><ARG_OF_PERICENTER>49.7575</ARG_OF_PERICENTER><MEAN_ANOMALY>310.3385</MEAN_ANOMALY></meanElements><tleParameters><EPHEMERIS_TYPE>0</EPHEMERIS_TYPE><CLASSIFICATION_TYPE>U</CLASSIFICATION_TYPE><NORAD_CAT_ID>25981</NORAD_CAT_ID><ELEMENT_SET_NO>999</ELEMENT_SET_NO><REV_AT_EPOCH>29432</REV_AT_EPOCH><BSTAR>.17932E-2</BSTAR><MEAN_MOTION_DOT>.5096E-4</MEAN_MOTION_DOT><MEAN_MOTION_DDOT>0</MEAN_MOTION_DDOT></tleParameters></data></segment></body></omm>
<omm id="CCSDS_OMM_VERS" version="2.0">
<header><CREATION_DATE/><ORIGINATOR/></header><body><segment><metadata><OBJECT_NAME>ORBCOMM FM32</OBJECT_NAME><OBJECT_ID>1999-065C</OBJECT_ID><CENTER_NAME>EARTH</CENTER_NAME><REF_FRAME>TEME</REF_FRAME><TIME_SYSTEM>UTC</TIME_SYSTEM><MEAN_ELEMENT_THEORY>SGP4</MEAN_ELEMENT_THEORY></metadata><data><meanElements><EPOCH>2024-09-07T10:22:59.368512</EPOCH><MEAN_MOTION>14.34782407</MEAN_MOTION><ECCENTRICITY>.0003574</ECCENTRICITY><INCLINATION>45.0171</INCLINATION><RA_OF_ASC_NODE>355.0164</RA_OF_ASC_NODE><ARG_OF_PERICENTER>59.7695</ARG_OF_PERICENTER><MEAN_ANOMALY>300.3506</MEAN_ANOMALY></meanElements><tleParameters><EPHEMERIS_TYPE>0</EPHEMERIS_TYPE><CLASSIFICATION_TYPE>U</CLASSIFICATION_TYPE><NORAD_CAT_ID>25982</NORAD_CAT_ID><ELEMENT_SET_NO>999</ELEMENT_SET_NO><REV_AT_EPOCH>29409</REV_AT_EPOCH><BSTAR>.15743E-2</BSTAR><MEAN_MOTION_DOT>.4366E-4</MEAN_MOTION_DOT><MEAN_MOTION_DDOT>0</MEAN_MOTION_DDOT></tleParameters></data></segment></body></omm>

</ndm>
