ORBCOMM FM24            
1 25478U 98053D   24251.49632382  .00005482  00000+0  19040-2 0  9996
2 25478  45.0072 167.8885 0001538 294.8003  65.2684 14.36324361357056
ORBCOMM FM25            
1 25479U 98053E   24250.83806137  .00005430  00000+0  18874-2 0  9992
2 25479  45.0063 169.2516 0004037 282.1547  77.8848 14.36299932356970
ORBCOMM FM26            
1 25480U 98053F   24250.82477683  .00004333  00000+0  15361-2 0  9992
2 25480  45.0059 163.9757 0006360 296.1965  63.8228 14.35638336357001
ORBCOMM FM27            
1 25481U 98053G   24251.45324092  .00006032  00000+0  20914-2 0  9996
2 25481  45.0044 166.6027 0001247   3.1940 356.8915 14.36298948357037
ORBCOMM FM28            
1 25482U 98053H   24250.77927325  .00004372  00000+0  15180-2 0  9993
2 25482  45.0045 107.8762 0003605 322.9562  37.1037 14.36669418357740
ORBCOMM FM30            
1 25980U 99065A   24251.54090065  .00004727  00000+0  16665-2 0  9991
2 25980  45.0331 346.2424 0004376  19.4825 340.6189 14.35790463294330
ORBCOMM FM31            
1 25981U 99065B   24251.50709894  .00005096  00000+0  17932-2 0  9993
2 25981  45.0240 340.0146 0001286  49.7575 310.3385 14.35772250294323
ORBCOMM FM32            
1 25982U 99065C   24251.43263158  .00004366  00000+0  15743-2 0  9991
2 25982  45.0171 355.0164 0003574  59.7695 300.3506 14.34782407294091
